FM-6                    
1 39360U 13058A   26198.88647631 -.00000024  00000+0  00000+0 0  9992
2 39360   0.0113  33.8260 0001627 149.2195 315.4236  1.00271283 46386
RADUGA-1M 3             
1 39375U 13062A   26198.83377906  .00000142  00000+0  00000+0 0  9993
2 39375   6.0348  71.9591 0002063 279.5763 279.2430  1.00270552 46416
SES-8                   
1 39460U 13071A   26198.96567843 -.00000278  00000+0  00000+0 0  9994
2 39460   0.0494 252.8221 0002721 220.6592 264.9312  1.00271780 44732
INMARSAT 5-F1           
1 39476U 13073A   26198.42288498  .00000018  00000+0  00000+0 0  9991
2 39476   0.0168  54.8119 0000278 249.6946 205.6017  1.00272096 45884
TKSAT-1 (TUPAC KATARI)  
1 39481U 13075A   26198.82081442 -.00000203  00000+0  00000+0 0  9990
2 39481   0.0359 252.0753 0002502 219.4240  32.4115  1.00270264 45916
EXPRESS-AM5             
1 39487U 13077A   26198.36696273 -.00000290  00000+0  00000+0 0  9997
2 39487   0.0269 282.5793 0000083 209.4402  75.3038  1.00269966 46665
GSAT-14                 
1 39498U 14001A   26198.84489117 -.00000085  00000+0  00000+0 0  9999
2 39498   0.0174  89.4578 0001963 119.2668 105.0487  1.00271314 45687
THAICOM 6               
1 39500U 14002A   26198.92503407 -.00000130  00000+0  00000+0 0  9993
2 39500   0.0544 108.4035 0004389  17.5453 221.2981  1.00272837 45769
TDRS 12                 
1 39504U 14004A   26198.92320102 -.00000279  00000+0  00000+0 0  9992
2 39504   4.0080  19.5899 0004308 202.4922   5.1439  1.00271891 44584
ABS-2                   
1 39508U 14006A   26198.92434074 -.00000095  00000+0  00000+0 0  9998
2 39508   0.0169  60.3933 0003479  41.7752 241.2332  1.00271942 45581
ATHENA-FIDUS            
1 39509U 14006B   26198.83532596  .00000145  00000+0  00000+0 0  9992
2 39509   0.0301 100.2621 0001420  24.8197 149.0665  1.00271097 45391
TURKSAT 4A              
1 39522U 14007A   26198.49008071  .00000136  00000+0  00000+0 0  9996
2 39522   0.0896 278.4237 0001323 318.5500 276.7826  1.00274653 45274
EXPRESS-AT1             
1 39612U 14010A   26198.78007206 -.00000021  00000+0  00000+0 0  9995
2 39612   0.3347  85.3284 0004458  56.7654 140.5610  1.00309614 45127
EXPRESS-AT2             
1 39613U 14010B   26198.89544706  .00000000  00000+0  00000+0 0  9995
2 39613   0.0201  53.1366 0000218  25.7416 235.1917  1.00270887 44804
AMAZONAS 4A             
1 39616U 14011A   26198.39584484 -.00000262  00000+0  00000+0 0  9992
2 39616   0.0592 188.1617 0004587 309.8573 225.6833  1.00272118 45015
ASTRA 5B                
1 39617U 14011B   26198.83933672  .00000128  00000+0  00000+0 0  9999
2 39617   0.0711 304.9422 0001977 179.7929 136.5298  1.00269553 44978
IRNSS-1B                
1 39635U 14017A   26198.70639336  .00000120  00000+0  00000+0 0  9993
2 39635  28.8716 239.8770 0022253 191.9011 173.2190  1.00276558 45109
LUCH-5V                 
1 39727U 14023A   26198.79330584 -.00000280  00000+0  00000+0 0  9992
2 39727   5.2066  69.4237 0002092  84.4596 162.0440  1.00272685 44667
KAZSAT-3                
1 39728U 14023B   26198.92104738  .00000052  00000+0  00000+0 0  9994
2 39728   0.0098 352.3688 0000136 305.5511  27.8783  1.00271241 42765
EUTELSAT 3B             
1 39773U 14030A   26198.83877753  .00000011  00000+0  00000+0 0  9991
2 39773   0.0613   8.3717 0004216 107.7107 124.6067  1.00271810 44377
ASIASAT 8 (AMOS-7)      
1 40107U 14046A   26198.93032078 -.00000342  00000+0  00000+0 0  9993
2 40107   0.0138  60.6228 0001554  40.1545 275.1776  1.00272841102456
ASIASAT 6               
1 40141U 14052A   26198.70808690 -.00000371  00000+0  00000+0 0  9996
2 40141   0.0167  78.9303 0000873  77.5351 153.8619  1.00269372 43383
OPTUS 10                
1 40146U 14054A   26198.86905623 -.00000156  00000+0  00000+0 0  9995
2 40146   0.0867  44.5004 0001789  64.2402 295.8051  1.00270203 43336
MEASAT-3B               
1 40147U 14054B   26198.92763409 -.00000251  00000+0  00000+0 0  9993
2 40147   0.0244 357.5397 0002795  80.9448 282.7132  1.00272761 43214
HIMAWARI-8              
1 40267U 14060A   26198.93734081 -.00000284  00000+0  00000+0 0  9994
2 40267   0.0151  34.0429 0001171 131.0114 248.7996  1.00270766 43068
IRNSS-1C                
1 40269U 14061A   26198.71202700 -.00000174  00000+0  00000+0 0  9999
2 40269   6.5925  88.3505 0022019   5.7430 180.8130  1.00271928 42997
INTELSAT 30 (IS-30)     
1 40271U 14062A   26198.81925441 -.00000160  00000+0  00000+0 0  9993
2 40271   0.0182  55.4118 0001428 329.4971 110.6015  1.00273419  7100
ARSAT 1                 
1 40272U 14062B   26198.39627817 -.00000270  00000+0  00000+0 0  9995
2 40272   0.0593 272.3421 0001854 195.6570 258.0556  1.00272820 42926
EUTELSAT 53A            
1 40277U 14064A   26198.30253381  .00000088  00000+0  00000+0 0  9990
2 40277   0.0167   5.1076 0001786 194.9390 256.9847  1.00272740 41876
GSAT-16                 
1 40332U 14078A   26198.82267117  .00000000  00000+0  00000+0 0  9990
2 40332   0.0239  62.9841 0007581  32.6929 191.2093  1.00269259 42410
DIRECTV 14              
1 40333U 14078B   26198.88976965 -.00000134  00000+0  00000+0 0  9994
2 40333   0.0107  45.5381 0000337 324.1187 147.1138  1.00270109 42357
YAMAL 401               
1 40345U 14082A   26198.14315655  .00000000  00000+0  00000+0 0  9995
2 40345   0.0134  63.7373 0000420  55.4085 317.3070  1.00270142 42215
