OBJECT_NAME,OBJECT_ID,EPOCH,MEAN_MOTION,ECCENTRICITY,INCLINATION,RA_OF_ASC_NODE,ARG_OF_PERICENTER,MEAN_ANOMALY,EPHEMERIS_TYPE,CLASSIFICATION_TYPE,NORAD_CAT_ID,ELEMENT_SET_NO,REV_AT_EPOCH,BSTAR,MEAN_MOTION_DOT,MEAN_MOTION_DDOT
FM-6,2013-058A,2026-07-17T21:16:31.553184,1.00271283,.00016274,0.0113,33.8260,149.2195,315.4236,0,U,39360,999,4638,0,-.24E-6,0
RADUGA-1M 3,2013-062A,2026-07-17T20:00:38.510784,1.00270552,.00020636,6.0348,71.9591,279.5763,279.2430,0,U,39375,999,4641,0,.142E-5,0
SES-8,2013-071A,2026-07-17T23:10:34.616352,1.00271780,.00027216,0.0494,252.8221,220.6592,264.9312,0,U,39460,999,4473,0,-.278E-5,0
INMARSAT 5-F1,2013-073A,2026-07-17T10:08:57.262272,1.00272096,.0000278,0.0168,54.8119,249.6946,205.6017,0,U,39476,999,4588,0,.18E-6,0
TKSAT-1 (TUPAC KATARI),2013-075A,2026-07-17T19:41:58.365888,1.00270264,.00025029,0.0359,252.0753,219.4240,32.4115,0,U,39481,999,4591,0,-.203E-5,0
EXPRESS-AM5,2013-077A,2026-07-17T08:48:25.579872,1.00269966,.0000083,0.0269,282.5793,209.4402,75.3038,0,U,39487,999,4666,0,-.29E-5,0
GSAT-14,2014-001A,2026-07-17T20:16:38.597088,1.00271314,.00019638,0.0174,89.4578,119.2668,105.0487,0,U,39498,999,4568,0,-.85E-6,0
THAICOM 6,2014-002A,2026-07-17T22:12:02.943648,1.00272837,.00043891,0.0544,108.4035,17.5453,221.2981,0,U,39500,999,4576,0,-.13E-5,0
TDRS 12,2014-004A,2026-07-17T22:09:24.568128,1.00271891,.00043086,4.0080,19.5899,202.4922,5.1439,0,U,39504,999,4458,0,-.279E-5,0
ABS-2,2014-006A,2026-07-17T22:11:03.039936,1.00271942,.00034795,0.0169,60.3933,41.7752,241.2332,0,U,39508,999,4558,0,-.95E-6,0
ATHENA-FIDUS,2014-006B,2026-07-17T20:02:52.162944,1.00271097,.000142,0.0301,100.2621,24.8197,149.0665,0,U,39509,999,4539,0,.145E-5,0
TURKSAT 4A,2014-007A,2026-07-17T11:45:42.973344,1.00274653,.0001323,0.0896,278.4237,318.5500,276.7826,0,U,39522,999,4527,0,.136E-5,0
EXPRESS-AT1,2014-010A,2026-07-17T18:43:18.225984,1.00309614,.00044582,0.3347,85.3284,56.7654,140.5610,0,U,39612,999,4512,0,-.21E-6,0
EXPRESS-AT2,2014-010B,2026-07-17T21:29:26.625984,1.00270887,.00002185,0.0201,53.1366,25.7416,235.1917,0,U,39613,999,4480,0,0,0
AMAZONAS 4A,2014-011A,2026-07-17T09:30:00.994176,1.00272118,.0004587,0.0592,188.1617,309.8573,225.6833,0,U,39616,999,4501,0,-.262E-5,0
ASTRA 5B,2014-011B,2026-07-17T20:08:38.692608,1.00269553,.00019777,0.0711,304.9422,179.7929,136.5298,0,U,39617,999,4497,0,.128E-5,0
IRNSS-1B,2014-017A,2026-07-17T16:57:12.386304,1.00276558,.00222538,28.8716,239.8770,191.9011,173.2190,0,U,39635,999,4510,0,.12E-5,0
LUCH-5V,2014-023A,2026-07-17T19:02:21.624576,1.00272685,.00020928,5.2066,69.4237,84.4596,162.0440,0,U,39727,999,4466,0,-.28E-5,0
KAZSAT-3,2014-023B,2026-07-17T22:06:18.493632,1.00271241,.00001361,0.0098,352.3688,305.5511,27.8783,0,U,39728,999,4276,0,.52E-6,0
EUTELSAT 3B,2014-030A,2026-07-17T20:07:50.378592,1.00271810,.00042164,0.0613,8.3717,107.7107,124.6067,0,U,39773,999,4437,0,.11E-6,0
ASIASAT 8 (AMOS-7),2014-046A,2026-07-17T22:19:39.715392,1.00272841,.00015545,0.0138,60.6228,40.1545,275.1776,0,U,40107,999,10245,0,-.342E-5,0
ASIASAT 6,2014-052A,2026-07-17T16:59:38.708160,1.00269372,.00008737,0.0167,78.9303,77.5351,153.8619,0,U,40141,999,4338,0,-.371E-5,0
OPTUS 10,2014-054A,2026-07-17T20:51:26.458272,1.00270203,.00017893,0.0867,44.5004,64.2402,295.8051,0,U,40146,999,4333,0,-.156E-5,0
MEASAT-3B,2014-054B,2026-07-17T22:15:47.585376,1.00272761,.00027957,0.0244,357.5397,80.9448,282.7132,0,U,40147,999,4321,0,-.251E-5,0
HIMAWARI-8,2014-060A,2026-07-17T22:29:46.245984,1.00270766,.00011714,0.0151,34.0429,131.0114,248.7996,0,U,40267,999,4306,0,-.284E-5,0
IRNSS-1C,2014-061A,2026-07-17T17:05:19.132800,1.00271928,.00220196,6.5925,88.3505,5.7430,180.8130,0,U,40269,999,4299,0,-.174E-5,0
INTELSAT 30 (IS-30),2014-062A,2026-07-17T19:39:43.581024,1.00273419,.00014286,0.0182,55.4118,329.4971,110.6015,0,U,40271,999,710,0,-.16E-5,0
ARSAT 1,2014-062B,2026-07-17T09:30:38.433888,1.00272820,.0001854,0.0593,272.3421,195.6570,258.0556,0,U,40272,999,4292,0,-.27E-5,0
EUTELSAT 53A,2014-064A,2026-07-17T07:15:38.921184,1.00272740,.0001786,0.0167,5.1076,194.9390,256.9847,0,U,40277,999,4187,0,.88E-6,0
GSAT-16,2014-078A,2026-07-17T19:44:38.789088,1.00269259,.00075813,0.0239,62.9841,32.6929,191.2093,0,U,40332,999,4241,0,0,0
DIRECTV 14,2014-078B,2026-07-17T21:21:16.097760,1.00270109,.00003378,0.0107,45.5381,324.1187,147.1138,0,U,40333,999,4235,0,-.134E-5,0
YAMAL 401,2014-082A,2026-07-17T03:26:08.725920,1.00270142,.000042,0.0134,63.7373,55.4085,317.3070,0,U,40345,999,4221,0,0,0
